start=new Date('2021-12-24T00:00:00.000Z').valueOf();
sats=[{"TLE_LINE2":"2 45090  53.0556 305.5752 0002229  44.9701 315.1469 15.06386924105392","MEAN_MOTION_DOT":"0.00002233","ECCENTRICITY":"0.00022290","CLASSIFICATION_TYPE":"U","DECAY_DATE":null,"SITE":"AFETR","ARG_OF_PERICENTER":"44.9701","FILE":"3249421","MEAN_MOTION":"15.06386924","SEMIMAJOR_AXIS":"6925.389","MEAN_ANOMALY":"315.1469","RA_OF_ASC_NODE":"305.5752","REF_FRAME":"TEME","COUNTRY_CODE":"US","EPOCH":"2021-12-23T21:23:24.234144","ELEMENT_SET_NO":"999","REV_AT_EPOCH":"10539","TIME_SYSTEM":"UTC","EPHEMERIS_TYPE":"0","PERIOD":"95.593","OBJECT_TYPE":"PAYLOAD","OBJECT_ID":"2020-006AY","GP_ID":"192322582","LAUNCH_DATE":"2020-01-29","MEAN_ELEMENT_THEORY":"SGP4","INCLINATION":"53.0556","PERIAPSIS":"545.710","BSTAR":"0.00016882000000","OBJECT_NAME":"STARLINK-1176","NORAD_CAT_ID":"45090","MEAN_MOTION_DDOT":"0.0000000000000","CENTER_NAME":"EARTH","TLE_LINE1":"1 45090U 20006AY  21357.89125271  .00002233  00000-0  16882-3 0  9997","APOAPSIS":"548.797","RCS_SIZE":"LARGE"},{"COUNTRY_CODE":"US","EPOCH":"2021-12-23T20:46:14.791008","ARG_OF_PERICENTER":"62.1424","FILE":"3249421","MEAN_MOTION":"15.06398819","MEAN_ANOMALY":"297.9767","SEMIMAJOR_AXIS":"6925.352","RA_OF_ASC_NODE":"305.6976","REF_FRAME":"TEME","SITE":"AFETR","TLE_LINE2":"2 45092  53.0558 305.6976 0001997  62.1424 297.9767 15.06398819105383","MEAN_MOTION_DOT":"0.00001709","ECCENTRICITY":"0.00019970","CLASSIFICATION_TYPE":"U","DECAY_DATE":null,"NORAD_CAT_ID":"45092","MEAN_MOTION_DDOT":"0.0000000000000","CENTER_NAME":"EARTH","TLE_LINE1":"1 45092U 20006BA  21357.86544897  .00001709  00000-0  13364-3 0  9994","APOAPSIS":"548.600","RCS_SIZE":"LARGE","BSTAR":"0.00013364000000","OBJECT_NAME":"STARLINK-1137","OBJECT_TYPE":"PAYLOAD","OBJECT_ID":"2020-006BA","GP_ID":"192323336","LAUNCH_DATE":"2020-01-29","INCLINATION":"53.0558","MEAN_ELEMENT_THEORY":"SGP4","PERIAPSIS":"545.834","ELEMENT_SET_NO":"999","REV_AT_EPOCH":"10538","TIME_SYSTEM":"UTC","EPHEMERIS_TYPE":"0","PERIOD":"95.592"},{"SITE":"AFETR","MEAN_MOTION_DOT":"0.00001878","ECCENTRICITY":"0.00012770","CLASSIFICATION_TYPE":"U","DECAY_DATE":null,"TLE_LINE2":"2 45093  53.0555 305.7091 0001277  72.3418 287.7710 15.06391164105388","EPOCH":"2021-12-23T20:40:57.021312","COUNTRY_CODE":"US","MEAN_ANOMALY":"287.7710","SEMIMAJOR_AXIS":"6925.376","RA_OF_ASC_NODE":"305.7091","REF_FRAME":"TEME","ARG_OF_PERICENTER":"72.3418","FILE":"3249421","MEAN_MOTION":"15.06391164","MEAN_ELEMENT_THEORY":"SGP4","INCLINATION":"53.0555","PERIAPSIS":"546.356","OBJECT_ID":"2020-006BB","OBJECT_TYPE":"PAYLOAD","GP_ID":"192321586","LAUNCH_DATE":"2020-01-29","REV_AT_EPOCH":"10538","TIME_SYSTEM":"UTC","EPHEMERIS_TYPE":"0","PERIOD":"95.593","ELEMENT_SET_NO":"999","TLE_LINE1":"1 45093U 20006BB  21357.86177108  .00001878  00000-0  14499-3 0  9999","APOAPSIS":"548.125","RCS_SIZE":"LARGE","NORAD_CAT_ID":"45093","MEAN_MOTION_DDOT":"0.0000000000000","CENTER_NAME":"EARTH","BSTAR":"0.00014499000000","OBJECT_NAME":"STARLINK-1142"},{"MEAN_MOTION_DOT":"0.00000302","ECCENTRICITY":"0.00017730","CLASSIFICATION_TYPE":"U","DECAY_DATE":null,"TLE_LINE2":"2 45094  53.0563 308.0174 0001773  54.6331 305.4824 15.06394628105319","SITE":"AFETR","MEAN_ANOMALY":"305.4824","SEMIMAJOR_AXIS":"6925.365","RA_OF_ASC_NODE":"308.0174","REF_FRAME":"TEME","ARG_OF_PERICENTER":"54.6331","FILE":"3248538","MEAN_MOTION":"15.06394628","EPOCH":"2021-12-23T08:17:51.665568","COUNTRY_CODE":"US","REV_AT_EPOCH":"10531","TIME_SYSTEM":"UTC","EPHEMERIS_TYPE":"0","PERIOD":"95.592","ELEMENT_SET_NO":"999","INCLINATION":"53.0563","MEAN_ELEMENT_THEORY":"SGP4","PERIAPSIS":"546.002","OBJECT_ID":"2020-006BC","OBJECT_TYPE":"PAYLOAD","GP_ID":"192288000","LAUNCH_DATE":"2020-01-29","BSTAR":"0.00003920900000","OBJECT_NAME":"STARLINK-1146","TLE_LINE1":"1 45094U 20006BC  21357.34573687  .00000302  00000-0  39209-4 0  9993","APOAPSIS":"548.458","RCS_SIZE":"LARGE","NORAD_CAT_ID":"45094","MEAN_MOTION_DDOT":"0.0000000000000","CENTER_NAME":"EARTH"},{"ELEMENT_SET_NO":"999","PERIOD":"95.592","EPHEMERIS_TYPE":"0","TIME_SYSTEM":"UTC","REV_AT_EPOCH":"10539","LAUNCH_DATE":"2020-01-29","GP_ID":"192323083","OBJECT_TYPE":"PAYLOAD","OBJECT_ID":"2020-006BD","PERIAPSIS":"545.539","MEAN_ELEMENT_THEORY":"SGP4","INCLINATION":"53.0564","OBJECT_NAME":"STARLINK-1147","BSTAR":"-0.00002634500000","CENTER_NAME":"EARTH","MEAN_MOTION_DDOT":"0.0000000000000","NORAD_CAT_ID":"45095","APOAPSIS":"548.908","RCS_SIZE":"LARGE","TLE_LINE1":"1 45095U 20006BD  21357.88019516 -.00000674  00000-0 -26345-4 0  9990","TLE_LINE2":"2 45095  53.0564 305.6339 0002432  49.9421 310.1781 15.06396802105396","DECAY_DATE":null,"CLASSIFICATION_TYPE":"U","ECCENTRICITY":"0.00024320","MEAN_MOTION_DOT":"-0.00000674","SITE":"AFETR","MEAN_MOTION":"15.06396802","FILE":"3249421","ARG_OF_PERICENTER":"49.9421","REF_FRAME":"TEME","RA_OF_ASC_NODE":"305.6339","MEAN_ANOMALY":"310.1781","SEMIMAJOR_AXIS":"6925.358","COUNTRY_CODE":"US","EPOCH":"2021-12-23T21:07:28.861824"},{"TLE_LINE2":"2 45096  53.0563 305.6710 0001755  57.2328 302.8830 15.06401383105387","DECAY_DATE":null,"CLASSIFICATION_TYPE":"U","ECCENTRICITY":"0.00017550","MEAN_MOTION_DOT":"0.00001619","SITE":"AFETR","MEAN_MOTION":"15.06401383","FILE":"3249421","ARG_OF_PERICENTER":"57.2328","REF_FRAME":"TEME","RA_OF_ASC_NODE":"305.6710","MEAN_ANOMALY":"302.8830","SEMIMAJOR_AXIS":"6925.344","COUNTRY_CODE":"US","EPOCH":"2021-12-23T20:56:50.719200","ELEMENT_SET_NO":"999","PERIOD":"95.592","EPHEMERIS_TYPE":"0","TIME_SYSTEM":"UTC","REV_AT_EPOCH":"10538","LAUNCH_DATE":"2020-01-29","GP_ID":"192322836","OBJECT_TYPE":"PAYLOAD","OBJECT_ID":"2020-006BE","PERIAPSIS":"545.994","INCLINATION":"53.0563","MEAN_ELEMENT_THEORY":"SGP4","OBJECT_NAME":"STARLINK-1152","BSTAR":"0.00012759000000","CENTER_NAME":"EARTH","MEAN_MOTION_DDOT":"0.0000000000000","NORAD_CAT_ID":"45096","APOAPSIS":"548.425","RCS_SIZE":"LARGE","TLE_LINE1":"1 45096U 20006BE  21357.87280925  .00001619  00000-0  12759-3 0  9995"},{"OBJECT_NAME":"STARLINK-1184","BSTAR":"0.00005505800000","CENTER_NAME":"EARTH","MEAN_MOTION_DDOT":"0.0000000000000","NORAD_CAT_ID":"45098","RCS_SIZE":"LARGE","APOAPSIS":"548.564","TLE_LINE1":"1 45098U 20006BG  21357.58900932  .00000539  00000-0  55058-4 0  9992","ELEMENT_SET_NO":"999","PERIOD":"95.592","EPHEMERIS_TYPE":"0","TIME_SYSTEM":"UTC","REV_AT_EPOCH":"10534","LAUNCH_DATE":"2020-01-29","GP_ID":"192322087","OBJECT_TYPE":"PAYLOAD","OBJECT_ID":"2020-006BG","PERIAPSIS":"545.840","MEAN_ELEMENT_THEORY":"SGP4","INCLINATION":"53.0554","MEAN_MOTION":"15.06403834","FILE":"3249421","ARG_OF_PERICENTER":"63.3908","REF_FRAME":"TEME","RA_OF_ASC_NODE":"306.9420","SEMIMAJOR_AXIS":"6925.337","MEAN_ANOMALY":"296.7283","COUNTRY_CODE":"US","EPOCH":"2021-12-23T14:08:10.405248","TLE_LINE2":"2 45098  53.0554 306.9420 0001967  63.3908 296.7283 15.06403834105340","DECAY_DATE":null,"CLASSIFICATION_TYPE":"U","ECCENTRICITY":"0.00019670","MEAN_MOTION_DOT":"0.00000539","SITE":"AFETR"},{"CENTER_NAME":"EARTH","MEAN_MOTION_DDOT":"0.0000000000000","NORAD_CAT_ID":"45099","APOAPSIS":"548.501","RCS_SIZE":"LARGE","TLE_LINE1":"1 45099U 20006BH  21357.55582503 -.00000448  00000-0 -11190-4 0  9990","OBJECT_NAME":"STARLINK-1186","BSTAR":"-0.00001119000000","LAUNCH_DATE":"2020-01-29","GP_ID":"192322338","OBJECT_ID":"2020-006BH","OBJECT_TYPE":"PAYLOAD","PERIAPSIS":"545.882","MEAN_ELEMENT_THEORY":"SGP4","INCLINATION":"53.0571","ELEMENT_SET_NO":"999","PERIOD":"95.592","EPHEMERIS_TYPE":"0","TIME_SYSTEM":"UTC","REV_AT_EPOCH":"10534","COUNTRY_CODE":"US","EPOCH":"2021-12-23T13:20:23.282592","MEAN_MOTION":"15.06407327","FILE":"3249421","ARG_OF_PERICENTER":"52.1580","REF_FRAME":"TEME","RA_OF_ASC_NODE":"307.0750","SEMIMAJOR_AXIS":"6925.326","MEAN_ANOMALY":"307.9580","SITE":"AFETR","TLE_LINE2":"2 45099  53.0571 307.0750 0001891  52.1580 307.9580 15.06407327105342","DECAY_DATE":null,"CLASSIFICATION_TYPE":"U","ECCENTRICITY":"0.00018910","MEAN_MOTION_DOT":"-0.00000448"},{"ELEMENT_SET_NO":"999","EPHEMERIS_TYPE":"0","PERIOD":"95.592","REV_AT_EPOCH":"10534","TIME_SYSTEM":"UTC","LAUNCH_DATE":"2020-01-29","OBJECT_ID":"2020-006BJ","OBJECT_TYPE":"PAYLOAD","GP_ID":"192322583","PERIAPSIS":"546.091","INCLINATION":"53.0542","MEAN_ELEMENT_THEORY":"SGP4","OBJECT_NAME":"STARLINK-1193","BSTAR":"0.00003154600000","CENTER_NAME":"EARTH","NORAD_CAT_ID":"45100","MEAN_MOTION_DDOT":"0.0000000000000","RCS_SIZE":"LARGE","APOAPSIS":"548.349","TLE_LINE1":"1 45100U 20006BJ  21357.58531564  .00000188  00000-0  31546-4 0  9993","TLE_LINE2":"2 45100  53.0542 306.9353 0001630  55.2234 304.8908 15.06398004105342","CLASSIFICATION_TYPE":"U","DECAY_DATE":null,"MEAN_MOTION_DOT":"0.00000188","ECCENTRICITY":"0.00016300","SITE":"AFETR","FILE":"3249421","MEAN_MOTION":"15.06398004","ARG_OF_PERICENTER":"55.2234","REF_FRAME":"TEME","RA_OF_ASC_NODE":"306.9353","SEMIMAJOR_AXIS":"6925.355","MEAN_ANOMALY":"304.8908","COUNTRY_CODE":"US","EPOCH":"2021-12-23T14:02:51.271296"},{"MEAN_ANOMALY":"300.4525","SEMIMAJOR_AXIS":"6925.380","RA_OF_ASC_NODE":"306.9558","REF_FRAME":"TEME","ARG_OF_PERICENTER":"59.6640","FILE":"3249421","MEAN_MOTION":"15.06389597","EPOCH":"2021-12-23T13:57:33.401376","COUNTRY_CODE":"US","MEAN_MOTION_DOT":"-0.00000059","ECCENTRICITY":"0.00017840","CLASSIFICATION_TYPE":"U","DECAY_DATE":null,"TLE_LINE2":"2 45101  53.0550 306.9558 0001784  59.6640 300.4525 15.06389597105342","SITE":"AFETR","BSTAR":"0.00001496200000","OBJECT_NAME":"STARLINK-1194","TLE_LINE1":"1 45101U 20006BK  21357.58163659 -.00000059  00000-0  14962-4 0  9991","APOAPSIS":"548.481","RCS_SIZE":"LARGE","NORAD_CAT_ID":"45101","MEAN_MOTION_DDOT":"0.0000000000000","CENTER_NAME":"EARTH","REV_AT_EPOCH":"10534","TIME_SYSTEM":"UTC","EPHEMERIS_TYPE":"0","PERIOD":"95.593","ELEMENT_SET_NO":"999","MEAN_ELEMENT_THEORY":"SGP4","INCLINATION":"53.0550","PERIAPSIS":"546.010","OBJECT_TYPE":"PAYLOAD","OBJECT_ID":"2020-006BK","GP_ID":"192323337","LAUNCH_DATE":"2020-01-29"}];
